NORAD_CAT_ID,OBJECT_NAME,OBJECT_TYPE,EPOCH,MEAN_MOTION,ECCENTRICITY,INCLINATION,RA_OF_ASC_NODE,ARG_OF_PERICENTER,MEAN_ANOMALY,BSTAR,MEAN_MOTION_DOT,MEAN_MOTION_DDOT,TLE_LINE0,TLE_LINE1,TLE_LINE2,SEMIMAJOR_AXIS,PERIOD,APOGEE,PERIGEE,DECAYED
53282.0,STARLINK-4164,PAYLOAD,2024-05-21 13:54:37,15.08853911,0.0001447,53.2156,254.0025,76.8738,283.2416,0.0016875,0.00026681,0.0,0 STARLINK-4164,1 53282U 22086AS  24142.57960514  .00026681  00000-0  16875-2 0  9990,2 53282  53.2156 254.0025 0001447  76.8738 283.2416 15.08853911101994,6917.838,95.437,540.704,538.702,0.0
53282.0,STARLINK-4164,PAYLOAD,2024-05-21 20:16:09,15.08883999,0.0001219,53.2155,252.8127,79.5117,280.6012,0.0023283,0.00037006,0.0,0 STARLINK-4164,1 53282U 22086AS  24142.84455778  .00037006  00000-0  23283-2 0  9995,2 53282  53.2155 252.8127 0001219  79.5117 280.6012 15.08883999101868,6917.746,95.435,540.454,538.768,0.0
53282.0,STARLINK-4164,PAYLOAD,2024-05-22 12:10:01,15.08851559,0.0001406,53.217,249.8401,89.5008,270.6146,0.00063767,9.878e-05,0.0,0 STARLINK-4164,1 53282U 22086AS  24143.50696193  .00009878  00000-0  63767-3 0  9995,2 53282  53.2170 249.8401 0001406  89.5008 270.6146 15.08851559101969,6917.845,95.437,540.683,538.737,0.0
53282.0,STARLINK-4164,PAYLOAD,2024-05-22 18:31:33,15.08864944,0.0001302,53.2181,248.6522,96.4359,263.6781,0.0019785,0.00031362,0.0,0 STARLINK-4164,1 53282U 22086AS  24143.77191951  .00031362  00000-0  19785-2 0  9999,2 53282  53.2181 248.6522 0001302  96.4359 263.6781 15.08864944102008,6917.804,95.436,540.57,538.768,0.0
53282.0,STARLINK-4164,PAYLOAD,2024-05-23 12:00:48,15.08850838,0.0001467,53.216,245.3777,108.4256,251.6896,0.0016611,0.00026255,0.0,0 STARLINK-4164,1 53282U 22086AS  24144.50056195  .00026255  00000-0  16611-2 0  9991,2 53282  53.2160 245.3777 0001467 108.4256 251.6896 15.08850838102116,6917.847,95.437,540.727,538.697,0.0
53282.0,STARLINK-4164,PAYLOAD,2024-05-24 05:30:02,15.08860108,0.000141,53.2168,242.1145,87.0363,273.0791,0.00089615,0.00014011,0.0,0 STARLINK-4164,1 53282U 22086AS  24145.22919909  .00014011  00000-0  89615-3 0  9994,2 53282  53.2168 242.1145 0001410  87.0363 273.0791 15.08860108102222,6917.819,95.436,540.659,538.709,0.0
53282.0,STARLINK-4164,PAYLOAD,2024-05-24 11:51:35,15.088591,0.0001376,53.216,240.9207,94.4397,265.6752,0.00067151,0.00010421,0.0,0 STARLINK-4164,1 53282U 22086AS  24145.49415718  .00010421  00000-0  67151-3 0  9994,2 53282  53.2160 240.9207 0001376  94.4397 265.6752 15.08859100102436,6917.822,95.436,540.639,538.735,0.0
53282.0,STARLINK-4164,PAYLOAD,2024-05-25 05:20:49,15.08843982,0.0002489,53.2159,237.6523,85.0863,275.0413,9.6751e-05,1.252e-05,0.0,0 STARLINK-4164,1 53282U 22086AS  24146.22279976  .00001252  00000-0  96751-4 0  9991,2 53282  53.2159 237.6523 0002489  85.0863 275.0413 15.08843982102371,6917.868,95.437,541.455,538.011,0.0
53282.0,STARLINK-4164,PAYLOAD,2024-05-25 13:17:45,15.08821928,0.0001074,53.2152,236.1616,81.1948,278.9166,-0.00028056,-4.748e-05,0.0,0 STARLINK-4164,1 53282U 22086AS  24146.55400457 -.00004748  00000-0 -28056-3 0  9994,2 53282  53.2152 236.1616 0001074  81.1948 278.9166 15.08821928102420,6917.936,95.439,540.544,539.058,0.0
53282.0,STARLINK-4164,PAYLOAD,2024-05-25 22:50:05,15.08830326,0.0001349,53.2152,234.3775,112.4514,247.6621,0.0003503,5.29e-05,0.0,0 STARLINK-4164,1 53282U 22086AS  24146.95144947  .00005290  00000-0  35030-3 0  9998,2 53282  53.2152 234.3775 0001349 112.4514 247.6621 15.08830326102485,6917.91,95.438,540.708,538.842,0.0
53282.0,STARLINK-4164,PAYLOAD,2024-05-26 14:43:56,15.08854357,0.0001294,53.215,231.4055,81.5175,278.5964,0.00096584,0.00015123,0.0,0 STARLINK-4164,1 53282U 22086AS  24147.61384734  .00015123  00000-0  96584-3 0  9999,2 53282  53.2150 231.4055 0001294  81.5175 278.5964 15.08854357102753,6917.837,95.437,540.597,538.806,0.0
53282.0,STARLINK-4164,PAYLOAD,2024-05-27 12:59:20,15.08852288,0.0001072,53.2144,227.2409,83.4318,276.6796,0.00051066,7.851e-05,0.0,0 STARLINK-4164,1 53282U 22086AS  24148.54120497  .00007851  00000-0  51066-3 0  9991,2 53282  53.2144 227.2409 0001072  83.4318 276.6796 15.08852288102726,6917.843,95.437,540.449,538.966,0.0
53282.0,STARLINK-4164,PAYLOAD,2024-05-28 04:53:11,15.08850067,0.0001436,53.2142,224.2707,61.9368,298.1769,0.00046813,7.172e-05,0.0,0 STARLINK-4164,1 53282U 22086AS  24149.20360545  .00007172  00000-0  46813-3 0  9995,2 53282  53.2142 224.2707 0001436  61.9368 298.1769 15.08850067102825,6917.85,95.437,540.708,538.721,0.0
53282.0,STARLINK-4164,PAYLOAD,2024-05-28 11:14:43,15.08848334,0.0001253,53.214,223.0791,71.1229,288.9899,0.00030929,4.639e-05,0.0,0 STARLINK-4164,1 53282U 22086AS  24149.46856429  .00004639  00000-0  30929-3 0  9990,2 53282  53.2140 223.0791 0001253  71.1229 288.9899 15.08848334103038,6917.855,95.437,540.587,538.853,0.0
53282.0,STARLINK-4164,PAYLOAD,2024-05-29 11:05:31,15.08838815,0.0001348,53.2145,218.619,66.9299,293.1835,1.8424e-05,5e-08,0.0,0 STARLINK-4164,1 53282U 22086AS  24150.46216860  .00000005  00000-0  18424-4 0  9991,2 53282  53.2145 218.6190 0001348  66.9299 293.1835 15.08838815103019,6917.884,95.438,540.682,538.816,0.0
53282.0,STARLINK-4164,PAYLOAD,2024-05-30 14:07:04,15.08849698,0.0001311,53.2146,213.5602,91.2141,268.9001,0.00024337,3.588e-05,0.0,0 STARLINK-4164,1 53282U 22086AS  24151.58824191  .00003588  00000-0  24337-3 0  9995,2 53282  53.2146 213.5602 0001311  91.2141 268.9001 15.08849698103352,6917.851,95.437,540.623,538.809,0.0
53282.0,STARLINK-4164,PAYLOAD,2024-05-31 04:25:32,15.08841841,0.0001265,53.2155,210.8789,106.8925,253.2206,0.00011323,1.515e-05,0.0,0 STARLINK-4164,1 53282U 22086AS  24152.18440468  .00001515  00000-0  11323-3 0  9992,2 53282  53.2155 210.8789 0001265 106.8925 253.2206 15.08841841103276,6917.875,95.437,540.615,538.865,0.0
53282.0,STARLINK-4164,PAYLOAD,2024-05-31 10:47:04,15.08844104,0.0001254,53.216,209.6904,100.0978,260.0155,0.00012593,1.717e-05,0.0,0 STARLINK-4164,1 53282U 22086AS  24152.44936302  .00001717  00000-0  12593-3 0  9992,2 53282  53.2160 209.6904 0001254 100.0978 260.0155 15.08844104103486,6917.868,95.437,540.6,538.865,0.0
53282.0,STARLINK-4164,PAYLOAD,2024-05-31 20:19:23,15.08843714,0.0001238,53.216,207.9114,87.6995,272.4139,0.000104,1.368e-05,0.0,0 STARLINK-4164,1 53282U 22086AS  24152.84680384  .00001368  00000-0  10400-3 0  9999,2 53282  53.2160 207.9114 0001238  87.6995 272.4139 15.08843714103543,6917.869,95.437,540.59,538.878,0.0
53282.0,STARLINK-4164,PAYLOAD,2024-06-01 10:37:52,15.08840545,0.0001383,53.2154,205.236,84.8072,275.3077,-3.8203e-05,-8.96e-06,0.0,0 STARLINK-4164,1 53282U 22086AS  24153.44296481 -.00000896  00000-0 -38203-4 0  9996,2 53282  53.2154 205.2360 0001383  84.8072 275.3077 15.08840545103469,6917.879,95.438,540.7,538.787,0.0
53282.0,STARLINK-4164,PAYLOAD,2024-06-02 12:04:03,15.08838091,0.0001374,53.2159,200.4792,95.4766,264.6383,6.327e-05,7.19e-06,0.0,0 STARLINK-4164,1 53282U 22086AS  24154.50281257  .00000719  00000-0  63270-4 0  9993,2 53282  53.2159 200.4792 0001374  95.4766 264.6383 15.08838091103620,6917.886,95.438,540.702,538.801,0.0
53282.0,STARLINK-4164,PAYLOAD,2024-06-03 10:19:26,15.08842095,0.0001359,53.2152,196.315,92.0712,268.0436,0.00014162,1.967e-05,0.0,0 STARLINK-4164,1 53282U 22086AS  24155.43017135  .00001967  00000-0  14162-3 0  9999,2 53282  53.2152 196.3150 0001359  92.0712 268.0436 15.08842095103931,6917.874,95.437,540.679,538.799,0.0
53282.0,STARLINK-4164,PAYLOAD,2024-06-03 19:51:45,15.08843422,0.000138,53.2154,194.5303,89.42,270.6951,0.00015907,2.245e-05,0.0,0 STARLINK-4164,1 53282U 22086AS  24155.82761085  .00002245  00000-0  15907-3 0  9990,2 53282  53.2154 194.5303 0001380  89.4200 270.6951 15.08843422103823,6917.87,95.437,540.69,538.78,0.0
53282.0,STARLINK-4164,PAYLOAD,2024-06-04 10:10:13,15.08840994,0.0001397,53.2141,191.853,92.578,267.5372,0.00042536,6.488e-05,0.0,0 STARLINK-4164,1 53282U 22086AS  24156.42377265  .00006488  00000-0  42536-3 0  9991,2 53282  53.2141 191.8530 0001397  92.5780 267.5372 15.08840994104089,6917.877,95.437,540.709,538.776,0.0
53282.0,STARLINK-4164,PAYLOAD,2024-06-04 19:42:32,15.08843861,0.0001293,53.2131,190.0673,96.6787,263.4352,0.00011616,1.561e-05,0.0,0 STARLINK-4164,1 53282U 22086AS  24156.82121020  .00001561  00000-0  11616-3 0  9993,2 53282  53.2131 190.0673 0001293  96.6787 263.4352 15.08843861104140,6917.869,95.437,540.628,538.839,0.0
53282.0,STARLINK-4164,PAYLOAD,2024-06-05 06:50:14,15.08841246,0.0001323,53.213,187.9859,94.4466,265.6678,3.9115e-05,3.35e-06,0.0,0 STARLINK-4164,1 53282U 22086AS  24157.28489115  .00000335  00000-0  39115-4 0  9999,2 53282  53.2130 187.9859 0001323  94.4466 265.6678 15.08841246104043,6917.877,95.437,540.657,538.826,0.0
53282.0,STARLINK-4164,PAYLOAD,2024-06-05 19:33:19,15.08842252,0.0001377,53.2156,185.607,92.2287,267.8863,5.1076e-05,5.25e-06,0.0,0 STARLINK-4164,1 53282U 22086AS  24157.81481160  .00000525  00000-0  51076-4 0  9991,2 53282  53.2156 185.6070 0001377  92.2287 267.8863 15.08842252104292,6917.874,95.437,540.691,538.786,0.0
53282.0,STARLINK-4164,PAYLOAD,2024-06-06 08:16:24,15.08841503,0.0001427,53.2158,183.2281,91.8428,268.2727,1.2841e-05,-8.4e-07,0.0,0 STARLINK-4164,1 53282U 22086AS  24158.34473237 -.00000084  00000-0  12841-4 0  9994,2 53282  53.2158 183.2281 0001427  91.8428 268.2727 15.08841503104203,6917.876,95.437,540.728,538.754,0.0
53282.0,STARLINK-4164,PAYLOAD,2024-06-07 08:07:11,15.08841442,0.0001426,53.2154,178.7686,88.3422,271.7734,9.1171e-05,1.163e-05,0.0,0 STARLINK-4164,1 53282U 22086AS  24159.33833107  .00001163  00000-0  91171-4 0  9991,2 53282  53.2154 178.7686 0001426  88.3422 271.7734 15.08841442104525,6917.876,95.437,540.727,538.754,0.0
53282.0,STARLINK-4164,PAYLOAD,2024-06-08 04:47:12,15.08840828,0.0001399,53.2151,174.9032,87.8988,272.2165,0.00010301,1.352e-05,0.0,0 STARLINK-4164,1 53282U 22086AS  24160.19945188  .00001352  00000-0  10301-3 0  9995,2 53282  53.2151 174.9032 0001399  87.8988 272.2165 15.08840828104481,6917.878,95.438,540.711,538.775,0.0
